QIANFAN-33              
1 61566U 24185Q   25235.91372261  .00000270  00000+0  18564-3 0  9997
2 61566  88.9753  91.1822 0005694 328.7435  31.3402 13.96416546 53696
QIANFAN-34              
1 61567U 24185R   25235.90523846  .00000271  00000+0  16804-3 0  9990
2 61567  88.9733  90.8931 0005248 339.6942  20.4029 14.02170287 53827
QIANFAN-35              
1 61568U 24185S   25235.89834991  .00000518  00000+0  20453-3 0  9994
2 61568  88.9755  89.9076 0004763 302.8503  57.2233 14.27680822 54360
QIANFAN-36              
1 61569U 24185T   25235.94679071  .00000134  00000+0  17564-3 0  9990
2 61569  88.9742  92.6031 0006780  20.6792 339.4635 13.55547922 52918
QIANFAN-37              
1 62238U 24232B   25235.89526600  .00000040  00000+0  43357-4 0  9996
2 62238  88.9931  52.5260 0002556  83.5287 276.6155 13.50960330 84208
QIANFAN-38              
1 62239U 24232C   25235.92016258  .00000046  00000+0  52871-4 0  9991
2 62239  88.9938  52.4317 0015531 149.1898 211.0168 13.50964523 84263
QIANFAN-39              
1 62240U 24232D   25235.92027779  .00000144  00000+0  54701-4 0  9996
2 62240  88.9939  49.9866 0018452  83.0289 277.3002 14.25235201 85609
QIANFAN-40              
1 62241U 24232E   25235.95304366  .00000044  00000+0  49386-4 0  9992
2 62241  88.9966  51.9816 0014343 156.1718 204.0100 13.50961163 84630
